[
  {
    "COMMENT": "GENERATED VIA SPACETRACK.ORG API",
    "ORIGINATOR": "18 SPCS",
    "NORAD_CAT_ID": "41335",
    "OBJECT_NAME": "SENTINEL 3A",
    "OBJECT_TYPE": "PAYLOAD",
    "CLASSIFICATION_TYPE": "U",
    "INTLDES": "16011A",
    "EPOCH": "2023-06-11 13:06:36",
    "EPOCH_MICROSECONDS": "924480",
    "MEAN_MOTION": "14.26743677",
    "ECCENTRICITY": "0.0001338",
    "INCLINATION": "98.6215",
    "RA_OF_ASC_NODE": "229.6801",
    "ARG_OF_PERICENTER": "95.1272",
    "MEAN_ANOMALY": "265.0062",
    "EPHEMERIS_TYPE": "0",
    "ELEMENT_SET_NO": "999",
    "REV_AT_EPOCH": "38097",
    "BSTAR": "0.000087087",
    "MEAN_MOTION_DOT": "0.00000167",
    "MEAN_MOTION_DDOT": "0",
    "FILE": "3930529",
    "TLE_LINE0": "0 SENTINEL 3A",
    "TLE_LINE1": "1 41335U 16011A   23162.54626070  .00000167  00000-0  87087-4 0  9997",
    "TLE_LINE2": "2 41335  98.6215 229.6801 0001338  95.1272 265.0062 14.26743677380973",
    "OBJECT_ID": "2016-011A",
    "OBJECT_NUMBER": "41335",
    "SEMIMAJOR_AXIS": "7180.773",
    "PERIOD": "100.929",
    "APOGEE": "803.599",
    "PERIGEE": "801.677",
    "DECAYED": "0"
  },
  {
    "COMMENT": "GENERATED VIA SPACETRACK.ORG API",
    "ORIGINATOR": "18 SPCS",
    "NORAD_CAT_ID": "41335",
    "OBJECT_NAME": "SENTINEL 3A",
    "OBJECT_TYPE": "PAYLOAD",
    "CLASSIFICATION_TYPE": "U",
    "INTLDES": "16011A",
    "EPOCH": "2023-06-11 16:28:35",
    "EPOCH_MICROSECONDS": "309856",
    "MEAN_MOTION": "14.26743733",
    "ECCENTRICITY": "0.0001339",
    "INCLINATION": "98.6215",
    "RA_OF_ASC_NODE": "229.8183",
    "ARG_OF_PERICENTER": "95.003",
    "MEAN_ANOMALY": "265.1304",
    "EPHEMERIS_TYPE": "0",
    "ELEMENT_SET_NO": "999",
    "REV_AT_EPOCH": "38099",
    "BSTAR": "0.000085873",
    "MEAN_MOTION_DOT": "0.00000164",
    "MEAN_MOTION_DDOT": "0",
    "FILE": "3930565",
    "TLE_LINE0": "0 SENTINEL 3A",
    "TLE_LINE1": "1 41335U 16011A   23162.68651979  .00000164  00000-0  85873-4 0  9996",
    "TLE_LINE2": "2 41335  98.6215 229.8183 0001339  95.0030 265.1304 14.26743733380995",
    "OBJECT_ID": "2016-011A",
    "OBJECT_NUMBER": "41335",
    "SEMIMAJOR_AXIS": "7180.773",
    "PERIOD": "100.929",
    "APOGEE": "803.599",
    "PERIGEE": "801.676",
    "DECAYED": "0"
  },
  {
    "COMMENT": "GENERATED VIA SPACETRACK.ORG API",
    "ORIGINATOR": "18 SPCS",
    "NORAD_CAT_ID": "41335",
    "OBJECT_NAME": "SENTINEL 3A",
    "OBJECT_TYPE": "PAYLOAD",
    "CLASSIFICATION_TYPE": "U",
    "INTLDES": "16011A",
    "EPOCH": "2023-06-11 21:31:32",
    "EPOCH_MICROSECONDS": "884032",
    "MEAN_MOTION": "14.267438",
    "ECCENTRICITY": "0.0001336",
    "INCLINATION": "98.6214",
    "RA_OF_ASC_NODE": "230.0256",
    "ARG_OF_PERICENTER": "95.0141",
    "MEAN_ANOMALY": "265.1192",
    "EPHEMERIS_TYPE": "0",
    "ELEMENT_SET_NO": "999",
    "REV_AT_EPOCH": "38102",
    "BSTAR": "0.000085185",
    "MEAN_MOTION_DOT": "0.00000163",
    "MEAN_MOTION_DDOT": "0",
    "FILE": "3930737",
    "TLE_LINE0": "0 SENTINEL 3A",
    "TLE_LINE1": "1 41335U 16011A   23162.89690838  .00000163  00000-0  85185-4 0  9991",
    "TLE_LINE2": "2 41335  98.6214 230.0256 0001336  95.0141 265.1192 14.26743800381024",
    "OBJECT_ID": "2016-011A",
    "OBJECT_NUMBER": "41335",
    "SEMIMAJOR_AXIS": "7180.773",
    "PERIOD": "100.929",
    "APOGEE": "803.597",
    "PERIGEE": "801.678",
    "DECAYED": "0"
  },
  {
    "COMMENT": "GENERATED VIA SPACETRACK.ORG API",
    "ORIGINATOR": "18 SPCS",
    "NORAD_CAT_ID": "41335",
    "OBJECT_NAME": "SENTINEL 3A",
    "OBJECT_TYPE": "PAYLOAD",
    "CLASSIFICATION_TYPE": "U",
    "INTLDES": "16011A",
    "EPOCH": "2023-06-12 04:15:29",
    "EPOCH_MICROSECONDS": "652192",
    "MEAN_MOTION": "14.26743896",
    "ECCENTRICITY": "0.0001329",
    "INCLINATION": "98.6214",
    "RA_OF_ASC_NODE": "230.302",
    "ARG_OF_PERICENTER": "94.9986",
    "MEAN_ANOMALY": "265.1346",
    "EPHEMERIS_TYPE": "0",
    "ELEMENT_SET_NO": "999",
    "REV_AT_EPOCH": "38106",
    "BSTAR": "0.000083307",
    "MEAN_MOTION_DOT": "0.00000158",
    "MEAN_MOTION_DDOT": "0",
    "FILE": "3930791",
    "TLE_LINE0": "0 SENTINEL 3A",
    "TLE_LINE1": "1 41335U 16011A   23163.17742653  .00000158  00000-0  83307-4 0  9994",
    "TLE_LINE2": "2 41335  98.6214 230.3020 0001329  94.9986 265.1346 14.26743896381063",
    "OBJECT_ID": "2016-011A",
    "OBJECT_NUMBER": "41335",
    "SEMIMAJOR_AXIS": "7180.772",
    "PERIOD": "100.929",
    "APOGEE": "803.592",
    "PERIGEE": "801.683",
    "DECAYED": "0"
  },
  {
    "COMMENT": "GENERATED VIA SPACETRACK.ORG API",
    "ORIGINATOR": "18 SPCS",
    "NORAD_CAT_ID": "41335",
    "OBJECT_NAME": "SENTINEL 3A",
    "OBJECT_TYPE": "PAYLOAD",
    "CLASSIFICATION_TYPE": "U",
    "INTLDES": "16011A",
    "EPOCH": "2023-06-12 09:18:27",
    "EPOCH_MICROSECONDS": "225504",
    "MEAN_MOTION": "14.26743963",
    "ECCENTRICITY": "0.0001329",
    "INCLINATION": "98.6214",
    "RA_OF_ASC_NODE": "230.5093",
    "ARG_OF_PERICENTER": "95.0148",
    "MEAN_ANOMALY": "265.1185",
    "EPHEMERIS_TYPE": "0",
    "ELEMENT_SET_NO": "999",
    "REV_AT_EPOCH": "38109",
    "BSTAR": "0.000081716",
    "MEAN_MOTION_DOT": "0.00000154",
    "MEAN_MOTION_DDOT": "0",
    "FILE": "3931115",
    "TLE_LINE0": "0 SENTINEL 3A",
    "TLE_LINE1": "1 41335U 16011A   23163.38781511  .00000154  00000-0  81716-4 0  9991",
    "TLE_LINE2": "2 41335  98.6214 230.5093 0001329  95.0148 265.1185 14.26743963381096",
    "OBJECT_ID": "2016-011A",
    "OBJECT_NUMBER": "41335",
    "SEMIMAJOR_AXIS": "7180.772",
    "PERIOD": "100.929",
    "APOGEE": "803.591",
    "PERIGEE": "801.683",
    "DECAYED": "0"
  },
  {
    "COMMENT": "GENERATED VIA SPACETRACK.ORG API",
    "ORIGINATOR": "18 SPCS",
    "NORAD_CAT_ID": "41335",
    "OBJECT_NAME": "SENTINEL 3A",
    "OBJECT_TYPE": "PAYLOAD",
    "CLASSIFICATION_TYPE": "U",
    "INTLDES": "16011A",
    "EPOCH": "2023-06-12 14:21:24",
    "EPOCH_MICROSECONDS": "799680",
    "MEAN_MOTION": "14.26744019",
    "ECCENTRICITY": "0.0001331",
    "INCLINATION": "98.6214",
    "RA_OF_ASC_NODE": "230.7166",
    "ARG_OF_PERICENTER": "94.9741",
    "MEAN_ANOMALY": "265.1591",
    "EPHEMERIS_TYPE": "0",
    "ELEMENT_SET_NO": "999",
    "REV_AT_EPOCH": "38112",
    "BSTAR": "0.000077789",
    "MEAN_MOTION_DOT": "0.00000145",
    "MEAN_MOTION_DDOT": "0",
    "FILE": "3931287",
    "TLE_LINE0": "0 SENTINEL 3A",
    "TLE_LINE1": "1 41335U 16011A   23163.59820370  .00000145  00000-0  77789-4 0  9996",
    "TLE_LINE2": "2 41335  98.6214 230.7166 0001331  94.9741 265.1591 14.26744019381127",
    "OBJECT_ID": "2016-011A",
    "OBJECT_NUMBER": "41335",
    "SEMIMAJOR_AXIS": "7180.772",
    "PERIOD": "100.929",
    "APOGEE": "803.593",
    "PERIGEE": "801.681",
    "DECAYED": "0"
  },
  {
    "COMMENT": "GENERATED VIA SPACETRACK.ORG API",
    "ORIGINATOR": "18 SPCS",
    "NORAD_CAT_ID": "41335",
    "OBJECT_NAME": "SENTINEL 3A",
    "OBJECT_TYPE": "PAYLOAD",
    "CLASSIFICATION_TYPE": "U",
    "INTLDES": "16011A",
    "EPOCH": "2023-06-12 19:24:22",
    "EPOCH_MICROSECONDS": "368672",
    "MEAN_MOTION": "14.26744152",
    "ECCENTRICITY": "0.0001329",
    "INCLINATION": "98.6214",
    "RA_OF_ASC_NODE": "230.9239",
    "ARG_OF_PERICENTER": "94.8807",
    "MEAN_ANOMALY": "265.2525",
    "EPHEMERIS_TYPE": "0",
    "ELEMENT_SET_NO": "999",
    "REV_AT_EPOCH": "38115",
    "BSTAR": "0.00008115",
    "MEAN_MOTION_DOT": "0.00000153",
    "MEAN_MOTION_DDOT": "0",
    "FILE": "3931336",
    "TLE_LINE0": "0 SENTINEL 3A",
    "TLE_LINE1": "1 41335U 16011A   23163.80859223  .00000153  00000-0  81150-4 0  9995",
    "TLE_LINE2": "2 41335  98.6214 230.9239 0001329  94.8807 265.2525 14.26744152381158",
    "OBJECT_ID": "2016-011A",
    "OBJECT_NUMBER": "41335",
    "SEMIMAJOR_AXIS": "7180.772",
    "PERIOD": "100.929",
    "APOGEE": "803.591",
    "PERIGEE": "801.682",
    "DECAYED": "0"
  },
  {
    "COMMENT": "GENERATED VIA SPACETRACK.ORG API",
    "ORIGINATOR": "18 SPCS",
    "NORAD_CAT_ID": "41335",
    "OBJECT_NAME": "SENTINEL 3A",
    "OBJECT_TYPE": "PAYLOAD",
    "CLASSIFICATION_TYPE": "U",
    "INTLDES": "16011A",
    "EPOCH": "2023-06-12 21:05:21",
    "EPOCH_MICROSECONDS": "559200",
    "MEAN_MOTION": "14.26744171",
    "ECCENTRICITY": "0.0001328",
    "INCLINATION": "98.6214",
    "RA_OF_ASC_NODE": "230.993",
    "ARG_OF_PERICENTER": "94.8434",
    "MEAN_ANOMALY": "265.2898",
    "EPHEMERIS_TYPE": "0",
    "ELEMENT_SET_NO": "999",
    "REV_AT_EPOCH": "38116",
    "BSTAR": "0.000080614",
    "MEAN_MOTION_DOT": "0.00000152",
    "MEAN_MOTION_DDOT": "0",
    "FILE": "3931605",
    "TLE_LINE0": "0 SENTINEL 3A",
    "TLE_LINE1": "1 41335U 16011A   23163.87872175  .00000152  00000-0  80614-4 0  9996",
    "TLE_LINE2": "2 41335  98.6214 230.9930 0001328  94.8434 265.2898 14.26744171381166",
    "OBJECT_ID": "2016-011A",
    "OBJECT_NUMBER": "41335",
    "SEMIMAJOR_AXIS": "7180.771",
    "PERIOD": "100.929",
    "APOGEE": "803.590",
    "PERIGEE": "801.683",
    "DECAYED": "0"
  }
]